{
  "type": "FeatureCollection",
  "features": [
    {
      "type": "Feature",
      "properties": {
        "norad_id": 67025,
        "name": "STARLINK-36178",
        "group": "last-30-days",
        "lat": 10.38304915315122,
        "lon": -57.58786972539493,
        "alt_km": 303.4978734638962,
        "timestamp": "2025-12-21T09:37:21.375102+00:00",
        "meta_object_name": "STARLINK-36178",
        "meta_object_id": "2025-293Y",
        "meta_epoch": "2025-12-21T04:00:01.998720",
        "meta_mean_motion": 15.90397837,
        "meta_eccentricity": 0.0004436,
        "meta_inclination": 69.9926,
        "meta_ra_of_asc_node": 299.2624,
        "meta_arg_of_pericenter": 273.009,
        "meta_mean_anomaly": 197.4544,
        "meta_ephemeris_type": 0,
        "meta_classification_type": "U",
        "meta_norad_cat_id": 67025,
        "meta_element_set_no": 999,
        "meta_rev_at_epoch": 158,
        "meta_bstar": -0.0019893,
        "meta_mean_motion_dot": -0.00610334,
        "meta_mean_motion_ddot": 0.00011918,
        "tle_line1": "1 67025U 25293Y   25355.16668980 -.00610334  11918-3 -19893-2 0  9999",
        "tle_line2": "2 67025  69.9926 299.2624 0004436 273.0090 197.4544 15.90397837  1585"
      },
      "geometry": {
        "type": "Point",
        "coordinates": [
          -57.58786972539493,
          10.38304915315122
        ]
      }
    },
    {
      "type": "Feature",
      "properties": {
        "norad_id": 67026,
        "name": "STARLINK-36176",
        "group": "last-30-days",
        "lat": 15.339523811086632,
        "lon": -55.68576122361083,
        "alt_km": 302.8114768200412,
        "timestamp": "2025-12-21T09:37:21.375112+00:00",
        "meta_object_name": "STARLINK-36176",
        "meta_object_id": "2025-293Z",
        "meta_epoch": "2025-12-21T04:00:01.998720",
        "meta_mean_motion": 15.90479054,
        "meta_eccentricity": 0.0004368,
        "meta_inclination": 69.9924,
        "meta_ra_of_asc_node": 299.2562,
        "meta_arg_of_pericenter": 273.222,
        "meta_mean_anomaly": 202.4722,
        "meta_ephemeris_type": 0,
        "meta_classification_type": "U",
        "meta_norad_cat_id": 67026,
        "meta_element_set_no": 999,
        "meta_rev_at_epoch": 158,
        "meta_bstar": -0.0021039,
        "meta_mean_motion_dot": -0.00647976,
        "meta_mean_motion_ddot": 0.00013324,
        "tle_line1": "1 67026U 25293Z   25355.16668980 -.00647976  13324-3 -21039-2 0  9990",
        "tle_line2": "2 67026  69.9924 299.2562 0004368 273.2220 202.4722 15.90479054  1583"
      },
      "geometry": {
        "type": "Point",
        "coordinates": [
          -55.68576122361083,
          15.339523811086632
        ]
      }
    },
    {
      "type": "Feature",
      "properties": {
        "norad_id": 67027,
        "name": "STARLINK-36171",
        "group": "last-30-days",
        "lat": 13.231603072305564,
        "lon": -56.504355539208674,
        "alt_km": 303.4082709681197,
        "timestamp": "2025-12-21T09:37:21.375123+00:00",
        "meta_object_name": "STARLINK-36171",
        "meta_object_id": "2025-293AA",
        "meta_epoch": "2025-12-21T04:00:01.998720",
        "meta_mean_motion": 15.90670395,
        "meta_eccentricity": 0.0003908,
        "meta_inclination": 69.9924,
        "meta_ra_of_asc_node": 299.2592,
        "meta_arg_of_pericenter": 272.3903,
        "meta_mean_anomaly": 201.0343,
        "meta_ephemeris_type": 0,
        "meta_classification_type": "U",
        "meta_norad_cat_id": 67027,
        "meta_element_set_no": 999,
        "meta_rev_at_epoch": 158,
        "meta_bstar": -0.004374,
        "meta_mean_motion_dot": -0.01352834,
        "meta_mean_motion_ddot": 0.00052111,
        "tle_line1": "1 67027U 25293AA  25355.16668980 -.01352834  52111-3 -43740-2 0  9998",
        "tle_line2": "2 67027  69.9924 299.2592 0003908 272.3903 201.0343 15.90670395  1589"
      },
      "geometry": {
        "type": "Point",
        "coordinates": [
          -56.504355539208674,
          13.231603072305564
        ]
      }
    },
    {
      "type": "Feature",
      "properties": {
        "norad_id": 67028,
        "name": "STARLINK-36132",
        "group": "last-30-days",
        "lat": 20.334321199237937,
        "lon": -53.667947475593444,
        "alt_km": 302.0424838572262,
        "timestamp": "2025-12-21T09:37:21.375133+00:00",
        "meta_object_name": "STARLINK-36132",
        "meta_object_id": "2025-293AB",
        "meta_epoch": "2025-12-21T04:00:01.998720",
        "meta_mean_motion": 15.90551788,
        "meta_eccentricity": 0.0004375,
        "meta_inclination": 69.9927,
        "meta_ra_of_asc_node": 299.2499,
        "meta_arg_of_pericenter": 274.0495,
        "meta_mean_anomaly": 206.9334,
        "meta_ephemeris_type": 0,
        "meta_classification_type": "U",
        "meta_norad_cat_id": 67028,
        "meta_element_set_no": 999,
        "meta_rev_at_epoch": 158,
        "meta_bstar": -0.002101,
        "meta_mean_motion_dot": -0.00649452,
        "meta_mean_motion_ddot": 0.0001339,
        "tle_line1": "1 67028U 25293AB  25355.16668980 -.00649452  13390-3 -21010-2 0  9995",
        "tle_line2": "2 67028  69.9927 299.2499 0004375 274.0495 206.9334 15.90551788  1581"
      },
      "geometry": {
        "type": "Point",
        "coordinates": [
          -53.667947475593444,
          20.334321199237937
        ]
      }
    },
    {
      "type": "Feature",
      "properties": {
        "norad_id": 67029,
        "name": "STARLINK-36190",
        "group": "last-30-days",
        "lat": 17.570843133665637,
        "lon": -54.79917346933366,
        "alt_km": 302.4618139700133,
        "timestamp": "2025-12-21T09:37:21.375146+00:00",
        "meta_object_name": "STARLINK-36190",
        "meta_object_id": "2025-293AC",
        "meta_epoch": "2025-12-21T04:00:01.998720",
        "meta_mean_motion": 15.90513586,
        "meta_eccentricity": 0.0004387,
        "meta_inclination": 69.9927,
        "meta_ra_of_asc_node": 299.2536,
        "meta_arg_of_pericenter": 273.4683,
        "meta_mean_anomaly": 204.5821,
        "meta_ephemeris_type": 0,
        "meta_classification_type": "U",
        "meta_norad_cat_id": 67029,
        "meta_element_set_no": 999,
        "meta_rev_at_epoch": 158,
        "meta_bstar": -0.0020714,
        "meta_mean_motion_dot": -0.00639124,
        "meta_mean_motion_ddot": 0.00012994,
        "tle_line1": "1 67029U 25293AC  25355.16668980 -.00639124  12994-3 -20714-2 0  9990",
        "tle_line2": "2 67029  69.9927 299.2536 0004387 273.4683 204.5821 15.90513586  1588"
      },
      "geometry": {
        "type": "Point",
        "coordinates": [
          -54.79917346933366,
          17.570843133665637
        ]
      }
    },
    {
      "type": "Feature",
      "properties": {
        "norad_id": 67030,
        "name": "STARLINK-36138",
        "group": "last-30-days",
        "lat": -21.313721418706066,
        "lon": 104.43947704177057,
        "alt_km": 316.06360089478676,
        "timestamp": "2025-12-21T09:37:21.375159+00:00",
        "meta_object_name": "STARLINK-36138",
        "meta_object_id": "2025-294A",
        "meta_epoch": "2025-12-21T04:00:01.998720",
        "meta_mean_motion": 15.85526072,
        "meta_eccentricity": 0.0002751,
        "meta_inclination": 42.9999,
        "meta_ra_of_asc_node": 130.6359,
        "meta_arg_of_pericenter": 278.9565,
        "meta_mean_anomaly": 150.2031,
        "meta_ephemeris_type": 0,
        "meta_classification_type": "U",
        "meta_norad_cat_id": 67030,
        "meta_element_set_no": 999,
        "meta_rev_at_epoch": 147,
        "meta_bstar": -0.0012779,
        "meta_mean_motion_dot": -0.00307873,
        "meta_mean_motion_ddot": 0,
        "tle_line1": "1 67030U 25294A   25355.16668980 -.00307873  00000+0 -12779-2 0  9999",
        "tle_line2": "2 67030  42.9999 130.6359 0002751 278.9565 150.2031 15.85526072  1479"
      },
      "geometry": {
        "type": "Point",
        "coordinates": [
          104.43947704177057,
          -21.313721418706066
        ]
      }
    },
    {
      "type": "Feature",
      "properties": {
        "norad_id": 67031,
        "name": "STARLINK-36150",
        "group": "last-30-days",
        "lat": -20.267153561320978,
        "lon": 105.84244487894114,
        "alt_km": 317.0357863806803,
        "timestamp": "2025-12-21T09:37:21.375170+00:00",
        "meta_object_name": "STARLINK-36150",
        "meta_object_id": "2025-294B",
        "meta_epoch": "2025-12-21T04:00:01.998720",
        "meta_mean_motion": 15.85906038,
        "meta_eccentricity": 0.0001724,
        "meta_inclination": 43,
        "meta_ra_of_asc_node": 130.6317,
        "meta_arg_of_pericenter": 275.4123,
        "meta_mean_anomaly": 155.3494,
        "meta_ephemeris_type": 0,
        "meta_classification_type": "U",
        "meta_norad_cat_id": 67031,
        "meta_element_set_no": 999,
        "meta_rev_at_epoch": 166,
        "meta_bstar": -0.0060236,
        "meta_mean_motion_dot": -0.01341486,
        "meta_mean_motion_ddot": 0,
        "tle_line1": "1 67031U 25294B   25355.16668980 -.01341486  00000+0 -60236-2 0  9990",
        "tle_line2": "2 67031  43.0000 130.6317 0001724 275.4123 155.3494 15.85906038  1664"
      },
      "geometry": {
        "type": "Point",
        "coordinates": [
          105.84244487894114,
          -20.267153561320978
        ]
      }
    }
  ]
}